[{"OBJECT_NAME":"IRIDIUM 172","OBJECT_ID":"2019-002F","EPOCH":"2026-03-09T21:35:38.790528","MEAN_MOTION":14.34217807,"ECCENTRICITY":0.00023275,"INCLINATION":86.397,"RA_OF_ASC_NODE":35.0518,"ARG_OF_PERICENTER":84.9159,"MEAN_ANOMALY":275.2302,"EPHEMERIS_TYPE":0,"CLASSIFICATION_TYPE":"U","NORAD_CAT_ID":43927,"ELEMENT_SET_NO":999,"REV_AT_EPOCH":37473,"BSTAR":0.00014166362,"MEAN_MOTION_DOT":4.17e-6,"MEAN_MOTION_DDOT":0},{"OBJECT_NAME":"CZ-6A R\/B","OBJECT_ID":"2024-232A","EPOCH":"2026-03-09T21:28:01.210944","MEAN_MOTION":14.51830255,"ECCENTRICITY":0.00974623,"INCLINATION":89.0358,"RA_OF_ASC_NODE":26.6088,"ARG_OF_PERICENTER":344.0906,"MEAN_ANOMALY":15.7245,"EPHEMERIS_TYPE":0,"CLASSIFICATION_TYPE":"U","NORAD_CAT_ID":62237,"ELEMENT_SET_NO":999,"REV_AT_EPOCH":11501,"BSTAR":0.00014315374,"MEAN_MOTION_DOT":6.29e-6,"MEAN_MOTION_DDOT":0}]
